{
  "type": "FeatureCollection",
  "features": [
    {
      "type": "Feature",
      "properties": {
        "norad_id": 2807,
        "name": "OPS 7218 (TRANSIT 16)",
        "group": "nnss",
        "lat": -8.711547006557504,
        "lon": 173.67926685817417,
        "alt_km": 1078.0381014792256,
        "timestamp": "2025-12-24T09:46:31.272574+00:00",
        "meta_object_name": "OPS 7218 (TRANSIT 16)",
        "meta_object_id": "1967-048A",
        "meta_epoch": "2025-12-24T00:13:23.606400",
        "meta_mean_motion": 13.50724573,
        "meta_eccentricity": 0.0022157,
        "meta_inclination": 89.6733,
        "meta_ra_of_asc_node": 353.6423,
        "meta_arg_of_pericenter": 84.0759,
        "meta_mean_anomaly": 330.083,
        "meta_ephemeris_type": 0,
        "meta_classification_type": "U",
        "meta_norad_cat_id": 2807,
        "meta_element_set_no": 999,
        "meta_rev_at_epoch": 88428,
        "meta_bstar": 0.00013776,
        "meta_mean_motion_dot": 9.9e-07,
        "meta_mean_motion_ddot": 0,
        "tle_line1": "1 02807U 67048A   25358.00930100  .00000099  00000+0  13776-3 0  9992",
        "tle_line2": "2 02807  89.6733 353.6423 0022157  84.0759 330.0830 13.50724573884285"
      },
      "geometry": {
        "type": "Point",
        "coordinates": [
          173.67926685817417,
          -8.711547006557504
        ]
      }
    },
    {
      "type": "Feature",
      "properties": {
        "norad_id": 2965,
        "name": "OPS 4947 (TRANSIT 17)",
        "group": "nnss",
        "lat": 7.440001262425209,
        "lon": 23.643467007442602,
        "alt_km": 1095.685859196883,
        "timestamp": "2025-12-24T09:46:31.272596+00:00",
        "meta_object_name": "OPS 4947 (TRANSIT 17)",
        "meta_object_id": "1967-092A",
        "meta_epoch": "2025-12-24T02:56:01.091040",
        "meta_mean_motion": 13.53456547,
        "meta_eccentricity": 0.0047039,
        "meta_inclination": 89.2486,
        "meta_ra_of_asc_node": 23.567,
        "meta_arg_of_pericenter": 200.7107,
        "meta_mean_anomaly": 218.5602,
        "meta_ephemeris_type": 0,
        "meta_classification_type": "U",
        "meta_norad_cat_id": 2965,
        "meta_element_set_no": 999,
        "meta_rev_at_epoch": 87251,
        "meta_bstar": 0.00018711,
        "meta_mean_motion_dot": 1.38e-06,
        "meta_mean_motion_ddot": 0,
        "tle_line1": "1 02965U 67092A   25358.12223485  .00000138  00000+0  18711-3 0  9998",
        "tle_line2": "2 02965  89.2486  23.5670 0047039 200.7107 218.5602 13.53456547872514"
      },
      "geometry": {
        "type": "Point",
        "coordinates": [
          23.643467007442602,
          7.440001262425209
        ]
      }
    },
    {
      "type": "Feature",
      "properties": {
        "norad_id": 3133,
        "name": "OPS 7034 (TRANSIT 18)",
        "group": "nnss",
        "lat": 76.64338979915054,
        "lon": -86.44800010664707,
        "alt_km": 1030.2858203214337,
        "timestamp": "2025-12-24T09:46:31.272610+00:00",
        "meta_object_name": "OPS 7034 (TRANSIT 18)",
        "meta_object_id": "1968-012A",
        "meta_epoch": "2025-12-24T00:34:04.440000",
        "meta_mean_motion": 13.51568276,
        "meta_eccentricity": 0.0074893,
        "meta_inclination": 90.0285,
        "meta_ra_of_asc_node": 273.671,
        "meta_arg_of_pericenter": 136.7043,
        "meta_mean_anomaly": 235.1328,
        "meta_ephemeris_type": 0,
        "meta_classification_type": "U",
        "meta_norad_cat_id": 3133,
        "meta_element_set_no": 999,
        "meta_rev_at_epoch": 57071,
        "meta_bstar": 0.0002117,
        "meta_mean_motion_dot": 1.5e-06,
        "meta_mean_motion_ddot": 0,
        "tle_line1": "1 03133U 68012A   25358.02366250  .00000150  00000+0  21170-3 0  9993",
        "tle_line2": "2 03133  90.0285 273.6710 0074893 136.7043 235.1328 13.51568276570715"
      },
      "geometry": {
        "type": "Point",
        "coordinates": [
          -86.44800010664707,
          76.64338979915054
        ]
      }
    },
    {
      "type": "Feature",
      "properties": {
        "norad_id": 4507,
        "name": "NNSS 19 (TRANSIT 19)",
        "group": "nnss",
        "lat": 39.50687575468922,
        "lon": -125.4622918505373,
        "alt_km": 1161.13687284987,
        "timestamp": "2025-12-24T09:46:31.272622+00:00",
        "meta_object_name": "NNSS 19 (TRANSIT 19)",
        "meta_object_id": "1970-067A",
        "meta_epoch": "2025-12-24T02:28:07.603392",
        "meta_mean_motion": 13.51317397,
        "meta_eccentricity": 0.0170224,
        "meta_inclination": 90.0049,
        "meta_ra_of_asc_node": 234.5416,
        "meta_arg_of_pericenter": 260.1168,
        "meta_mean_anomaly": 98.0731,
        "meta_ephemeris_type": 0,
        "meta_classification_type": "U",
        "meta_norad_cat_id": 4507,
        "meta_element_set_no": 999,
        "meta_rev_at_epoch": 72375,
        "meta_bstar": 0.00014583,
        "meta_mean_motion_dot": 1.11e-06,
        "meta_mean_motion_ddot": 0,
        "tle_line1": "1 04507U 70067A   25358.10286578  .00000111  00000+0  14583-3 0  9992",
        "tle_line2": "2 04507  90.0049 234.5416 0170224 260.1168  98.0731 13.51317397723757"
      },
      "geometry": {
        "type": "Point",
        "coordinates": [
          -125.4622918505373,
          39.50687575468922
        ]
      }
    },
    {
      "type": "Feature",
      "properties": {
        "norad_id": 6909,
        "name": "NNSS 20 (TRANSIT 20)",
        "group": "nnss",
        "lat": -54.683540094073564,
        "lon": 75.08263965033208,
        "alt_km": 1114.5767013267514,
        "timestamp": "2025-12-24T09:46:31.272633+00:00",
        "meta_object_name": "NNSS 20 (TRANSIT 20)",
        "meta_object_id": "1973-081A",
        "meta_epoch": "2025-12-23T16:52:47.423424",
        "meta_mean_motion": 13.71439948,
        "meta_eccentricity": 0.01562328,
        "meta_inclination": 89.8561,
        "meta_ra_of_asc_node": 254.89,
        "meta_arg_of_pericenter": 45.8278,
        "meta_mean_anomaly": 315.5602,
        "meta_ephemeris_type": 0,
        "meta_classification_type": "U",
        "meta_norad_cat_id": 6909,
        "meta_element_set_no": 999,
        "meta_rev_at_epoch": 80511,
        "meta_bstar": 0.00027861987,
        "meta_mean_motion_dot": 2.84e-06,
        "meta_mean_motion_ddot": 0,
        "tle_line1": "1 06909U 73081A   25357.70332666  .00000284  00000+0  27862-3 0  9999",
        "tle_line2": "2 06909  89.8561 254.8900 0156232  45.8278 315.5602 13.71439948805110"
      },
      "geometry": {
        "type": "Point",
        "coordinates": [
          75.08263965033208,
          -54.683540094073564
        ]
      }
    },
    {
      "type": "Feature",
      "properties": {
        "norad_id": 10457,
        "name": "TRANSAT",
        "group": "nnss",
        "lat": -56.04735789968345,
        "lon": 77.66005478931109,
        "alt_km": 1099.9018589806,
        "timestamp": "2025-12-24T09:46:31.272645+00:00",
        "meta_object_name": "TRANSAT",
        "meta_object_id": "1977-106A",
        "meta_epoch": "2025-12-24T03:15:18.202176",
        "meta_mean_motion": 13.48945287,
        "meta_eccentricity": 0.0026428,
        "meta_inclination": 89.6476,
        "meta_ra_of_asc_node": 78.1934,
        "meta_arg_of_pericenter": 157.16,
        "meta_mean_anomaly": 268.1532,
        "meta_ephemeris_type": 0,
        "meta_classification_type": "U",
        "meta_norad_cat_id": 10457,
        "meta_element_set_no": 999,
        "meta_rev_at_epoch": 36897,
        "meta_bstar": 0.00013063,
        "meta_mean_motion_dot": 9.2e-07,
        "meta_mean_motion_ddot": 0,
        "tle_line1": "1 10457U 77106A   25358.13562734  .00000092  00000+0  13063-3 0  9998",
        "tle_line2": "2 10457  89.6476  78.1934 0026428 157.1600 268.1532 13.48945287368974"
      },
      "geometry": {
        "type": "Point",
        "coordinates": [
          77.66005478931109,
          -56.04735789968345
        ]
      }
    },
    {
      "type": "Feature",
      "properties": {
        "norad_id": 12458,
        "name": "NOVA 1",
        "group": "nnss",
        "lat": -29.063608101082604,
        "lon": -88.6977464714795,
        "alt_km": 1186.303674175916,
        "timestamp": "2025-12-24T09:46:31.272655+00:00",
        "meta_object_name": "NOVA 1",
        "meta_object_id": "1981-044A",
        "meta_epoch": "2025-12-24T00:31:33.367872",
        "meta_mean_motion": 13.23279653,
        "meta_eccentricity": 0.001576,
        "meta_inclination": 89.8525,
        "meta_ra_of_asc_node": 91.2257,
        "meta_arg_of_pericenter": 76.2569,
        "meta_mean_anomaly": 97.7005,
        "meta_ephemeris_type": 0,
        "meta_classification_type": "U",
        "meta_norad_cat_id": 12458,
        "meta_element_set_no": 999,
        "meta_rev_at_epoch": 15335,
        "meta_bstar": 0.0002102,
        "meta_mean_motion_dot": 9.8e-07,
        "meta_mean_motion_ddot": 0,
        "tle_line1": "1 12458U 81044A   25358.02191398  .00000098  00000+0  21020-3 0  9997",
        "tle_line2": "2 12458  89.8525  91.2257 0015760  76.2569  97.7005 13.23279653153355"
      },
      "geometry": {
        "type": "Point",
        "coordinates": [
          -88.6977464714795,
          -29.063608101082604
        ]
      }
    }
  ]
}